[
    {
        "OBJECT_NAME": "COSMOS 2081 [GLONASS]",
        "OBJECT_ID": "1990-045C",
        "EPOCH": "2026-07-18T08:29:52.827360",
        "MEAN_MOTION": 2.1310489,
        "ECCENTRICITY": 0.00466967,
        "INCLINATION": 64.7103,
        "RA_OF_ASC_NODE": 307.5672,
        "ARG_OF_PERICENTER": 213.0271,
        "MEAN_ANOMALY": 156.4443,
        "EPHEMERIS_TYPE": 0,
        "CLASSIFICATION_TYPE": "U",
        "NORAD_CAT_ID": 20621,
        "ELEMENT_SET_NO": 999,
        "REV_AT_EPOCH": 28135,
        "BSTAR": 0,
        "MEAN_MOTION_DOT": -6.9e-07,
        "MEAN_MOTION_DDOT": 0
    },
    {
        "OBJECT_NAME": "COSMOS 2109 [GLONASS]",
        "OBJECT_ID": "1990-110A",
        "EPOCH": "2026-07-19T05:03:38.743776",
        "MEAN_MOTION": 2.1310189,
        "ECCENTRICITY": 0.00785348,
        "INCLINATION": 64.9435,
        "RA_OF_ASC_NODE": 70.0312,
        "ARG_OF_PERICENTER": 201.634,
        "MEAN_ANOMALY": 341.4548,
        "EPHEMERIS_TYPE": 0,
        "CLASSIFICATION_TYPE": "U",
        "NORAD_CAT_ID": 21006,
        "ELEMENT_SET_NO": 999,
        "REV_AT_EPOCH": 27716,
        "BSTAR": 0,
        "MEAN_MOTION_DOT": -4.4e-07,
        "MEAN_MOTION_DDOT": 0
    },
    {
        "OBJECT_NAME": "COSMOS 2110 [GLONASS]",
        "OBJECT_ID": "1990-110B",
        "EPOCH": "2026-07-19T21:41:41.851104",
        "MEAN_MOTION": 2.13101469,
        "ECCENTRICITY": 0.00428506,
        "INCLINATION": 64.9575,
        "RA_OF_ASC_NODE": 70.4428,
        "ARG_OF_PERICENTER": 200.2437,
        "MEAN_ANOMALY": 337.5814,
        "EPHEMERIS_TYPE": 0,
        "CLASSIFICATION_TYPE": "U",
        "NORAD_CAT_ID": 21007,
        "ELEMENT_SET_NO": 999,
        "REV_AT_EPOCH": 27716,
        "BSTAR": 0,
        "MEAN_MOTION_DOT": -4.8e-07,
        "MEAN_MOTION_DDOT": 0
    },
    {
        "OBJECT_NAME": "COSMOS 2111 [GLONASS]",
        "OBJECT_ID": "1990-110C",
        "EPOCH": "2026-07-17T02:38:31.446816",
        "MEAN_MOTION": 2.13098529,
        "ECCENTRICITY": 0.00177341,
        "INCLINATION": 64.9419,
        "RA_OF_ASC_NODE": 70.1915,
        "ARG_OF_PERICENTER": 238.2403,
        "MEAN_ANOMALY": 305.1975,
        "EPHEMERIS_TYPE": 0,
        "CLASSIFICATION_TYPE": "U",
        "NORAD_CAT_ID": 21008,
        "ELEMENT_SET_NO": 999,
        "REV_AT_EPOCH": 27703,
        "BSTAR": 0,
        "MEAN_MOTION_DOT": -2.4e-07,
        "MEAN_MOTION_DDOT": 0
    },
    {
        "OBJECT_NAME": "COSMOS 2139 [GLONASS]",
        "OBJECT_ID": "1991-025A",
        "EPOCH": "2026-07-19T07:57:50.515488",
        "MEAN_MOTION": 2.13105688,
        "ECCENTRICITY": 0.00171974,
        "INCLINATION": 64.3407,
        "RA_OF_ASC_NODE": 303.2787,
        "ARG_OF_PERICENTER": 219.7044,
        "MEAN_ANOMALY": 140.2035,
        "EPHEMERIS_TYPE": 0,
        "CLASSIFICATION_TYPE": "U",
        "NORAD_CAT_ID": 21216,
        "ELEMENT_SET_NO": 999,
        "REV_AT_EPOCH": 27461,
        "BSTAR": 0,
        "MEAN_MOTION_DOT": -7.3e-07,
        "MEAN_MOTION_DDOT": 0
    },
    {
        "OBJECT_NAME": "COSMOS 2140 [GLONASS]",
        "OBJECT_ID": "1991-025B",
        "EPOCH": "2026-07-20T11:42:38.334816",
        "MEAN_MOTION": 2.13101186,
        "ECCENTRICITY": 0.00280699,
        "INCLINATION": 64.3284,
        "RA_OF_ASC_NODE": 303.1256,
        "ARG_OF_PERICENTER": 215.729,
        "MEAN_ANOMALY": 153.1124,
        "EPHEMERIS_TYPE": 0,
        "CLASSIFICATION_TYPE": "U",
        "NORAD_CAT_ID": 21217,
        "ELEMENT_SET_NO": 999,
        "REV_AT_EPOCH": 27465,
        "BSTAR": 0,
        "MEAN_MOTION_DOT": -7.9e-07,
        "MEAN_MOTION_DDOT": 0
    },
    {
        "OBJECT_NAME": "COSMOS 2141 [GLONASS]",
        "OBJECT_ID": "1991-025C",
        "EPOCH": "2026-07-20T23:23:50.112384",
        "MEAN_MOTION": 2.13103016,
        "ECCENTRICITY": 0.00060149,
        "INCLINATION": 64.3205,
        "RA_OF_ASC_NODE": 303.0056,
        "ARG_OF_PERICENTER": 224.9144,
        "MEAN_ANOMALY": 147.8537,
        "EPHEMERIS_TYPE": 0,
        "CLASSIFICATION_TYPE": "U",
        "NORAD_CAT_ID": 21218,
        "ELEMENT_SET_NO": 999,
        "REV_AT_EPOCH": 27469,
        "BSTAR": 0,
        "MEAN_MOTION_DOT": -8.1e-07,
        "MEAN_MOTION_DDOT": 0
    },
    {
        "OBJECT_NAME": "COSMOS 2177 [GLONASS]",
        "OBJECT_ID": "1992-005A",
        "EPOCH": "2026-07-15T09:10:38.763840",
        "MEAN_MOTION": 2.13101096,
        "ECCENTRICITY": 0.00061274,
        "INCLINATION": 64.9044,
        "RA_OF_ASC_NODE": 69.0026,
        "ARG_OF_PERICENTER": 171.3446,
        "MEAN_ANOMALY": 4.1199,
        "EPHEMERIS_TYPE": 0,
        "CLASSIFICATION_TYPE": "U",
        "NORAD_CAT_ID": 21853,
        "ELEMENT_SET_NO": 999,
        "REV_AT_EPOCH": 26815,
        "BSTAR": 0,
        "MEAN_MOTION_DOT": -1.3e-07,
        "MEAN_MOTION_DDOT": 0
    },
    {
        "OBJECT_NAME": "COSMOS 2178 [GLONASS]",
        "OBJECT_ID": "1992-005B",
        "EPOCH": "2026-07-21T02:25:35.020128",
        "MEAN_MOTION": 2.13105882,
        "ECCENTRICITY": 0.00318822,
        "INCLINATION": 64.9122,
        "RA_OF_ASC_NODE": 68.8589,
        "ARG_OF_PERICENTER": 33.7295,
        "MEAN_ANOMALY": 142.7483,
        "EPHEMERIS_TYPE": 0,
        "CLASSIFICATION_TYPE": "U",
        "NORAD_CAT_ID": 21854,
        "ELEMENT_SET_NO": 999,
        "REV_AT_EPOCH": 26825,
        "BSTAR": 0,
        "MEAN_MOTION_DOT": -5.4e-07,
        "MEAN_MOTION_DDOT": 0
    },
    {
        "OBJECT_NAME": "COSMOS 2179 [GLONASS]",
        "OBJECT_ID": "1992-005C",
        "EPOCH": "2026-07-20T09:52:05.984832",
        "MEAN_MOTION": 2.13102806,
        "ECCENTRICITY": 0.00144189,
        "INCLINATION": 64.9109,
        "RA_OF_ASC_NODE": 68.8956,
        "ARG_OF_PERICENTER": 251.5977,
        "MEAN_ANOMALY": 288.8988,
        "EPHEMERIS_TYPE": 0,
        "CLASSIFICATION_TYPE": "U",
        "NORAD_CAT_ID": 21855,
        "ELEMENT_SET_NO": 999,
        "REV_AT_EPOCH": 26805,
        "BSTAR": 0,
        "MEAN_MOTION_DOT": -5.2e-07,
        "MEAN_MOTION_DDOT": 0
    },
    {
        "OBJECT_NAME": "COSMOS 2206 [GLONASS]",
        "OBJECT_ID": "1992-047A",
        "EPOCH": "2026-07-21T18:37:27.863616",
        "MEAN_MOTION": 2.13107053,
        "ECCENTRICITY": 0.00110687,
        "INCLINATION": 64.1165,
        "RA_OF_ASC_NODE": 300.8621,
        "ARG_OF_PERICENTER": 240.6811,
        "MEAN_ANOMALY": 116.3256,
        "EPHEMERIS_TYPE": 0,
        "CLASSIFICATION_TYPE": "U",
        "NORAD_CAT_ID": 22056,
        "ELEMENT_SET_NO": 999,
        "REV_AT_EPOCH": 26435,
        "BSTAR": 0,
        "MEAN_MOTION_DOT": -8e-07,
        "MEAN_MOTION_DDOT": 0
    },
    {
        "OBJECT_NAME": "COSMOS 2204 [GLONASS]",
        "OBJECT_ID": "1992-047B",
        "EPOCH": "2026-07-18T22:11:22.429824",
        "MEAN_MOTION": 2.13102684,
        "ECCENTRICITY": 0.00156772,
        "INCLINATION": 64.1345,
        "RA_OF_ASC_NODE": 301.1654,
        "ARG_OF_PERICENTER": 345.0057,
        "MEAN_ANOMALY": 19.8535,
        "EPHEMERIS_TYPE": 0,
        "CLASSIFICATION_TYPE": "U",
        "NORAD_CAT_ID": 22057,
        "ELEMENT_SET_NO": 999,
        "REV_AT_EPOCH": 26421,
        "BSTAR": 0,
        "MEAN_MOTION_DOT": -6.8e-07,
        "MEAN_MOTION_DDOT": 0
    },
    {
        "OBJECT_NAME": "COSMOS 2205 [GLONASS]",
        "OBJECT_ID": "1992-047C",
        "EPOCH": "2026-07-20T06:32:54.926016",
        "MEAN_MOTION": 2.13103221,
        "ECCENTRICITY": 0.00201557,
        "INCLINATION": 64.1271,
        "RA_OF_ASC_NODE": 301.0525,
        "ARG_OF_PERICENTER": 222.3344,
        "MEAN_ANOMALY": 146.1943,
        "EPHEMERIS_TYPE": 0,
        "CLASSIFICATION_TYPE": "U",
        "NORAD_CAT_ID": 22058,
        "ELEMENT_SET_NO": 999,
        "REV_AT_EPOCH": 26424,
        "BSTAR": 0,
        "MEAN_MOTION_DOT": -7.6e-07,
        "MEAN_MOTION_DDOT": 0
    }
]
