{"epoch":1784762836,"count":18316,"objects":[{"id":"20621","name":"COSMOS 2081 (GLONASS)","type":"PAYLOAD","l1":"1 20621U 90045C   26199.35408365 -.00000069  00000-0  00000-0 0  9996","l2":"2 20621  64.7103 307.5672 0046697 213.0271 156.4443  2.13104890281356"},{"id":"21006","name":"COSMOS 2109 (GLONASS)","type":"PAYLOAD","l1":"1 21006U 90110A   26200.21086509 -.00000044  00000-0  00000-0 0  9990","l2":"2 21006  64.9435  70.0312 0078535 201.6340 341.4548  2.13101890277166"},{"id":"21007","name":"COSMOS 2110 (GLONASS)","type":"PAYLOAD","l1":"1 21007U 90110B   26200.90395661 -.00000048  00000-0  00000-0 0  9993","l2":"2 21007  64.9575  70.4428 0042851 200.2437 337.5814  2.13101469277162"},{"id":"21008","name":"COSMOS 2111 (GLONASS)","type":"PAYLOAD","l1":"1 21008U 90110C   26198.11008619 -.00000024  00000-0  00000-0 0  9991","l2":"2 21008  64.9419  70.1915 0017734 238.2403 305.1975  2.13098529277031"},{"id":"21216","name":"COSMOS 2139 (GLONASS)","type":"PAYLOAD","l1":"1 21216U 91025A   26200.33183467 -.00000073  00000-0  00000-0 0  9995","l2":"2 21216  64.3407 303.2787 0017197 219.7044 140.2035  2.13105688274619"},{"id":"21217","name":"COSMOS 2140 (GLONASS)","type":"PAYLOAD","l1":"1 21217U 91025B   26201.48794369 -.00000079  00000-0  00000-0 0  9998","l2":"2 21217  64.3284 303.1256 0028070 215.7290 153.1124  2.13101186274659"},{"id":"21218","name":"COSMOS 2141 (GLONASS)","type":"PAYLOAD","l1":"1 21218U 91025C   26201.97488556 -.00000081  00000-0  00000-0 0  9994","l2":"2 21218  64.3205 303.0056 0006015 224.9144 147.8537  2.13103016274691"},{"id":"21853","name":"COSMOS 2177 (GLONASS)","type":"PAYLOAD","l1":"1 21853U 92005A   26196.38239310 -.00000013  00000-0  00000-0 0  9993","l2":"2 21853  64.9044  69.0026 0006127 171.3446   4.1199  2.13101096268152"},{"id":"21854","name":"COSMOS 2178 (GLONASS)","type":"PAYLOAD","l1":"1 21854U 92005B   26202.10109977 -.00000054  00000-0  00000-0 0  9992","l2":"2 21854  64.9122  68.8589 0031882  33.7295 142.7483  2.13105882268253"},{"id":"21855","name":"COSMOS 2179 (GLONASS)","type":"PAYLOAD","l1":"1 21855U 92005C   26201.41118038 -.00000052  00000-0  00000-0 0  9992","l2":"2 21855  64.9109  68.8956 0014419 251.5977 288.8988  2.13102806268054"},{"id":"22056","name":"COSMOS 2206 (GLONASS)","type":"PAYLOAD","l1":"1 22056U 92047A   26202.77601694 -.00000080  00000-0  00000-0 0  9998","l2":"2 22056  64.1165 300.8621 0011069 240.6811 116.3256  2.13107053264355"},{"id":"22057","name":"COSMOS 2204 (GLONASS)","type":"PAYLOAD","l1":"1 22057U 92047B   26199.92456516 -.00000068  00000-0  00000-0 0  9998","l2":"2 22057  64.1345 301.1654 0015677 345.0057  19.8535  2.13102684264214"},{"id":"22058","name":"COSMOS 2205 (GLONASS)","type":"PAYLOAD","l1":"1 22058U 92047C   26201.27285794 -.00000076  00000-0  00000-0 0  9998","l2":"2 22058  64.1271 301.0525 0020156 222.3344 146.1943  2.13103221264241"}]}